0 COSMOS 2251 DEB
1 34003U 93036GN  13281.85960885  .00001476  00000-0  11915-2 0  3637
2 34003 074.0821 105.4871 0312923 166.7382 258.2568 13.70679685232660
0 COSMOS 2251 DEB
1 34003U 93036GN  13283.18508221  .00001676  00000-0  13509-2 0  3641
2 34003 074.0822 103.3061 0312820 164.2506 318.7496 13.70687853232844
0 COSMOS 2251 DEB
1 34003U 93036GN  13285.66738759  .00001876  00000-0  15099-2 0  3667
2 34003 074.0824 099.2212 0312715 159.6044 327.6526 13.70697083233182
0 COSMOS 2251 DEB
1 34003U 93036GN  13286.82292946  .00002130  00000-0  17120-2 0  3671
2 34003 074.0828 097.3197 0312663 157.4591 269.6727 13.70701281233344
0 COSMOS 2251 DEB
1 34003U 93036GN  13287.92994742  .00003456  00000-0  27676-2 0  3686
2 34003 074.0824 095.4995 0312688 155.3752 332.2982 13.70706218233499
0 COSMOS 2251 DEB
1 34003U 93036GN  13289.17024454  .00003063  00000-0  24548-2 0  3699
2 34003 074.0828 093.4583 0312597 153.0511 332.6131 13.70713830233668
0 COSMOS 2251 DEB
1 34003U 93036GN  13290.60485397  .00000011  00000-0  85597-5 0  3702
2 34003 074.0688 091.0973 0312874 149.2905 212.7406 13.70696822233867
0 COSMOS 2251 DEB
1 34003U 93036GN  13290.63056403  .00002923  00000-0  23432-2 0  3708
2 34003 074.0834 091.0554 0312462 150.3266 338.6655 13.70721869233865
0 COSMOS 2251 DEB
1 34003U 93036GN  13291.78542944  .00002780  00000-0  22298-2 0  3716
2 34003 074.0837 089.1552 0312391 148.1523 277.4832 13.70727105234021
0 COSMOS 2251 DEB
1 34003U 93036GN  13293.24362326  .00003189  00000-0  25559-2 0  3721
2 34003 074.0841 086.7561 0312259 145.4279 273.1255 13.70734208234226
0 COSMOS 2251 DEB
1 34003U 93036GN  13294.40603824  .00003216  00000-0  25776-2 0  3734
2 34003 074.0842 084.8434 0312165 143.2491 249.2431 13.70740958234389
0 COSMOS 2251 DEB
1 34003U 93036GN  13295.42827911  .00003290  00000-0  26364-2 0  3749
2 34003 074.0843 083.1615 0312035 141.3408 253.6645 13.70747293234527
